TDRS 3                  
1 19548U 88091B   26116.90808588 -.00000311  00000+0  00000+0 0  9999
2 19548  12.6410 341.3448 0040969 356.1807 155.4467  1.00274944124873
FLTSATCOM 8 (USA 46)    
1 20253U 89077A   26116.75933883 -.00000379  00000+0  00000+0 0  9993
2 20253  12.4362 351.4748 0006844  17.9769 244.1935  1.00280654260041
SKYNET 4C               
1 20776U 90079A   26116.78581043  .00000114  00000+0  00000+0 0  9993
2 20776  13.3569 350.1687 0002682  32.4888 148.3564  1.00269928130374
TDRS 5                  
1 21639U 91054B   26116.81736311  .00000072  00000+0  00000+0 0  9993
2 21639  14.0783 354.1634 0007927 285.4071  61.7814  1.00271012127195
TDRS 6                  
1 22314U 93003B   26117.09055975 -.00000306  00000+0  00000+0 0  9992
2 22314  14.1825 357.4398 0005997 179.0480  25.4426  1.00273429121895
UFO 2 (USA 95)          
1 22787U 93056A   26116.90111061  .00000115  00000+0  00000+0 0  9999
2 22787  11.8778   3.8358 0008532 355.3201 208.9051  1.00278760118033
USA 99 (MILSTAR-1 1)    
1 22988U 94009A   26117.20253022 -.00000207  00000+0  00000+0 0  9992
2 22988  17.5424  28.2644 0003700 352.9898 176.8653  1.00273182 32447
UFO 4 (USA 108)         
1 23467U 95003A   26116.73129485 -.00000032  00000+0  00000+0 0  9998
2 23467   9.7013  13.4008 0003493  20.5488 256.3397  1.00273374114431
TDRS 7                  
1 23613U 95035B   26117.14816609 -.00000252  00000+0  00000+0 0  9997
2 23613  13.3989 348.5420 0010905  64.9519 304.0713  1.00278005112741
USA 115 (MILSTAR-1 2)   
1 23712U 95060A   26117.14226544 -.00000097  00000+0  00000+0 0  9995
2 23712  14.0558   4.1327 0000873 356.5102 154.1841  1.00366530 32370
INMARSAT 3-F1           
1 23839U 96020A   26116.69956001 -.00000292  00000+0  00000+0 0  9996
2 23839  10.4965  47.1006 0004002 334.2703  43.0834  0.99995002109744
INMARSAT 3-F2           
1 24307U 96053A   26117.18345851  .00000094  00000+0  00000+0 0  9992
2 24307   9.7438  54.4479 0006669 345.8041  79.9800  0.99994542108412
INMARSAT 3-F3           
1 24674U 96070A   26116.79846969 -.00000242  00000+0  00000+0 0  9996
2 24674  10.2094  50.1354 0004711 323.5018 225.8544  0.99978140107391
AMC-3                   
1 24936U 97050A   26116.83625653 -.00000268  00000+0  00000+0 0  9994
2 24936   8.0228  64.6637 0003090 321.0795  58.1392  1.00271411 51929
USA 134                 
1 25019U 97065A   26116.59026112 -.00000072  00000+0  00000+0 0  9994
2 25019  12.7250  22.1107 0006081 324.7858 327.8660  1.00276282 32433
INMARSAT 3-F5           
1 25153U 98006B   26117.16718249 -.00000297  00000+0  00000+0 0  9991
2 25153   9.5825  53.7586 0005048 341.4989 186.1021  1.00271782103388
ABS-6                   
1 25924U 99053A   26116.89489183 -.00000131  00000+0  00000+0 0  9998
2 25924   0.0522  88.8943 0003051 327.0123 280.1575  1.00270741 97321
